stk.v.11.0

# WrittenBy    STK_v11.2.0

BEGIN Ephemeris

NumberOfEphemerisPoints 1441

ScenarioEpoch            11 Nov 2030 05:58:49.938000

# Epoch in JDate format: 2462816.74918909722222
# Epoch in YYDDD format:   30315.24918909722222


InterpolationMethod     Lagrange

InterpolationSamplesM1      7

CentralBody             Earth

CoordinateSystem        J2000 

# Time of first point: 11 Nov 2030 05:58:49.938000000 UTCG = 2462816.74918909722222 JDate = 30315.24918909722222 YYDDD

EphemerisTimePosVel

3.72000000000000e+04 -1.55266772225374e+10 1.38113414931692e+09 -3.88609709395350e+09 -1.34189230326223e+03 -5.09640438649138e+02 4.35377874160103e+03
3.72600000000000e+04 -1.55267577363367e+10 1.38110356898796e+09 -3.88583586765229e+09 -1.34190104945264e+03 -5.09703836425888e+02 4.35376480500407e+03
3.73200000000000e+04 -1.55268382506608e+10 1.38107298485514e+09 -3.88557464218729e+09 -1.34190979356249e+03 -5.09767233795561e+02 4.35375086774140e+03
3.73800000000000e+04 -1.55269187655094e+10 1.38104239691884e+09 -3.88531341755856e+09 -1.34191853559180e+03 -5.09830630758050e+02 4.35373692981303e+03
3.74400000000000e+04 -1.55269992808825e+10 1.38101180517873e+09 -3.88505219376612e+09 -1.34192727554055e+03 -5.09894027313304e+02 4.35372299121901e+03
3.75000000000000e+04 -1.55270797967799e+10 1.38098120963485e+09 -3.88479097081001e+09 -1.34193601340875e+03 -5.09957423461246e+02 4.35370905195937e+03
3.75600000000000e+04 -1.55271603132015e+10 1.38095061028687e+09 -3.88452974869029e+09 -1.34194474919639e+03 -5.10020819201828e+02 4.35369511203415e+03
3.76200000000000e+04 -1.55272408301473e+10 1.38092000713516e+09 -3.88426852740698e+09 -1.34195348290348e+03 -5.10084214534941e+02 4.35368117144338e+03
3.76800000000000e+04 -1.55273213476169e+10 1.38088940018009e+09 -3.88400730696013e+09 -1.34196221453003e+03 -5.10147609460477e+02 4.35366723018710e+03
3.77400000000000e+04 -1.55274018656104e+10 1.38085878942132e+09 -3.88374608734978e+09 -1.34197094407603e+03 -5.10211003978390e+02 4.35365328826535e+03
3.78000000000000e+04 -1.55274823841277e+10 1.38082817485857e+09 -3.88348486857597e+09 -1.34197967154149e+03 -5.10274398088626e+02 4.35363934567815e+03
3.78600000000000e+04 -1.55275629031685e+10 1.38079755649249e+09 -3.88322365063873e+09 -1.34198839692641e+03 -5.10337791791054e+02 4.35362540242555e+03
3.79200000000000e+04 -1.55276434227327e+10 1.38076693432284e+09 -3.88296243353811e+09 -1.34199712023079e+03 -5.10401185085617e+02 4.35361145850759e+03
3.79800000000000e+04 -1.55277239428203e+10 1.38073630834961e+09 -3.88270121727415e+09 -1.34200584145463e+03 -5.10464577972241e+02 4.35359751392428e+03
3.80400000000000e+04 -1.55278044634312e+10 1.38070567857211e+09 -3.88244000184688e+09 -1.34201456059791e+03 -5.10527970450910e+02 4.35358356867569e+03
3.81000000000000e+04 -1.55278849845651e+10 1.38067504499176e+09 -3.88217878725635e+09 -1.34202327766069e+03 -5.10591362521422e+02 4.35356962276183e+03
3.81600000000000e+04 -1.55279655062219e+10 1.38064440760792e+09 -3.88191757350260e+09 -1.34203199264293e+03 -5.10654754183759e+02 4.35355567618274e+03
3.82200000000000e+04 -1.55280460284016e+10 1.38061376642057e+09 -3.88165636058567e+09 -1.34204070554464e+03 -5.10718145437846e+02 4.35354172893846e+03
3.82800000000000e+04 -1.55281265511040e+10 1.38058312142943e+09 -3.88139514850559e+09 -1.34204941636580e+03 -5.10781536283630e+02 4.35352778102903e+03
3.83400000000000e+04 -1.55282070743290e+10 1.38055247263517e+09 -3.88113393726241e+09 -1.34205812510646e+03 -5.10844926720976e+02 4.35351383245448e+03
3.84000000000000e+04 -1.55282875980765e+10 1.38052182003719e+09 -3.88087272685616e+09 -1.34206683176658e+03 -5.10908316749862e+02 4.35349988321485e+03
3.84600000000000e+04 -1.55283681223462e+10 1.38049116363615e+09 -3.88061151728689e+09 -1.34207553634618e+03 -5.10971706370152e+02 4.35348593331016e+03
3.85200000000000e+04 -1.55284486471383e+10 1.38046050343140e+09 -3.88035030855464e+09 -1.34208423884525e+03 -5.11035095581829e+02 4.35347198274047e+03
3.85800000000000e+04 -1.55285291724523e+10 1.38042983942365e+09 -3.88008910065944e+09 -1.34209293926382e+03 -5.11098484384752e+02 4.35345803150580e+03
3.86400000000000e+04 -1.55286096982884e+10 1.38039917161259e+09 -3.87982789360134e+09 -1.34210163760187e+03 -5.11161872778874e+02 4.35344407960619e+03
3.87000000000000e+04 -1.55286902246462e+10 1.38036849999822e+09 -3.87956668738038e+09 -1.34211033385940e+03 -5.11225260764117e+02 4.35343012704167e+03
3.87600000000000e+04 -1.55287707515259e+10 1.38033782458029e+09 -3.87930548199659e+09 -1.34211902803641e+03 -5.11288648340428e+02 4.35341617381228e+03
3.88200000000000e+04 -1.55288512789271e+10 1.38030714535907e+09 -3.87904427745002e+09 -1.34212772013291e+03 -5.11352035507706e+02 4.35340221991806e+03
3.88800000000000e+04 -1.55289318068497e+10 1.38027646233500e+09 -3.87878307374070e+09 -1.34213641014890e+03 -5.11415422265837e+02 4.35338826535904e+03
3.89400000000000e+04 -1.55290123352937e+10 1.38024577550773e+09 -3.87852187086868e+09 -1.34214509808440e+03 -5.11478808614776e+02 4.35337431013525e+03
3.90000000000000e+04 -1.55290928642589e+10 1.38021508487729e+09 -3.87826066883399e+09 -1.34215378393938e+03 -5.11542194554443e+02 4.35336035424674e+03
3.90600000000000e+04 -1.55291733937452e+10 1.38018439044337e+09 -3.87799946763669e+09 -1.34216246771385e+03 -5.11605580084790e+02 4.35334639769354e+03
3.91200000000000e+04 -1.55292539237524e+10 1.38015369220667e+09 -3.87773826727679e+09 -1.34217114940783e+03 -5.11668965205677e+02 4.35333244047568e+03
3.91800000000000e+04 -1.55293344542805e+10 1.38012299016654e+09 -3.87747706775435e+09 -1.34217982902130e+03 -5.11732349917087e+02 4.35331848259320e+03
3.92400000000000e+04 -1.55294149853293e+10 1.38009228432368e+09 -3.87721586906940e+09 -1.34218850655428e+03 -5.11795734218882e+02 4.35330452404614e+03
3.93000000000000e+04 -1.55294955168988e+10 1.38006157467743e+09 -3.87695467122199e+09 -1.34219718200676e+03 -5.11859118111044e+02 4.35329056483453e+03
3.93600000000000e+04 -1.55295760489886e+10 1.38003086122850e+09 -3.87669347421216e+09 -1.34220585537875e+03 -5.11922501593434e+02 4.35327660495840e+03
3.94200000000000e+04 -1.55296565815988e+10 1.38000014397659e+09 -3.87643227803994e+09 -1.34221452667025e+03 -5.11985884666001e+02 4.35326264441779e+03
3.94800000000000e+04 -1.55297371147292e+10 1.37996942292203e+09 -3.87617108270537e+09 -1.34222319588128e+03 -5.12049267328641e+02 4.35324868321275e+03
3.95400000000000e+04 -1.55298176483797e+10 1.37993869806316e+09 -3.87590988820850e+09 -1.34223186301177e+03 -5.12112649581424e+02 4.35323472134329e+03
3.96000000000000e+04 -1.55298981825502e+10 1.37990796940239e+09 -3.87564869454936e+09 -1.34224052806180e+03 -5.12176031424061e+02 4.35322075880947e+03
3.96600000000000e+04 -1.55299787172405e+10 1.37987723693874e+09 -3.87538750172800e+09 -1.34224919103136e+03 -5.12239412856562e+02 4.35320679561131e+03
3.97200000000000e+04 -1.55300592524505e+10 1.37984650067254e+09 -3.87512630974445e+09 -1.34225785192044e+03 -5.12302793878822e+02 4.35319283174885e+03
3.97800000000000e+04 -1.55301397881801e+10 1.37981576060247e+09 -3.87486511859875e+09 -1.34226651072901e+03 -5.12366174490880e+02 4.35317886722213e+03
3.98400000000000e+04 -1.55302203244292e+10 1.37978501673027e+09 -3.87460392829095e+09 -1.34227516745713e+03 -5.12429554692509e+02 4.35316490203118e+03
3.99000000000000e+04 -1.55303008611977e+10 1.37975426905493e+09 -3.87434273882108e+09 -1.34228382210476e+03 -5.12492934483720e+02 4.35315093617603e+03
3.99600000000000e+04 -1.55303813984852e+10 1.37972351757749e+09 -3.87408155018918e+09 -1.34229247467193e+03 -5.12556313864345e+02 4.35313696965673e+03
4.00200000000000e+04 -1.55304619362920e+10 1.37969276229627e+09 -3.87382036239530e+09 -1.34230112515860e+03 -5.12619692834456e+02 4.35312300247331e+03
4.00800000000000e+04 -1.55305424746177e+10 1.37966200321300e+09 -3.87355917543947e+09 -1.34230977356483e+03 -5.12683071393825e+02 4.35310903462580e+03
4.01400000000000e+04 -1.55306230134622e+10 1.37963124032741e+09 -3.87329798932173e+09 -1.34231841989060e+03 -5.12746449542399e+02 4.35309506611424e+03
4.02000000000000e+04 -1.55307035528254e+10 1.37960047363879e+09 -3.87303680404213e+09 -1.34232706413589e+03 -5.12809827280165e+02 4.35308109693866e+03
4.02600000000000e+04 -1.55307840927073e+10 1.37956970314681e+09 -3.87277561960070e+09 -1.34233570630070e+03 -5.12873204607073e+02 4.35306712709911e+03
4.03200000000000e+04 -1.55308646331077e+10 1.37953892885256e+09 -3.87251443599748e+09 -1.34234434638505e+03 -5.12936581522955e+02 4.35305315659561e+03
4.03800000000000e+04 -1.55309451740263e+10 1.37950815075640e+09 -3.87225325323251e+09 -1.34235298438897e+03 -5.12999958027701e+02 4.35303918542821e+03
4.04400000000000e+04 -1.55310257154631e+10 1.37947736885731e+09 -3.87199207130584e+09 -1.34236162031242e+03 -5.13063334121325e+02 4.35302521359693e+03
4.05000000000000e+04 -1.55311062574181e+10 1.37944658315498e+09 -3.87173089021750e+09 -1.34237025415540e+03 -5.13126709803777e+02 4.35301124110182e+03
4.05600000000000e+04 -1.55311867998910e+10 1.37941579365116e+09 -3.87146970996753e+09 -1.34237888591795e+03 -5.13190085074828e+02 4.35299726794290e+03
4.06200000000000e+04 -1.55312673428818e+10 1.37938500034450e+09 -3.87120853055597e+09 -1.34238751560005e+03 -5.13253459934520e+02 4.35298329412022e+03
4.06800000000000e+04 -1.55313478863903e+10 1.37935420323536e+09 -3.87094735198286e+09 -1.34239614320169e+03 -5.13316834382745e+02 4.35296931963381e+03
4.07400000000000e+04 -1.55314284304164e+10 1.37932340232271e+09 -3.87068617424824e+09 -1.34240476872285e+03 -5.13380208419516e+02 4.35295534448371e+03
4.08000000000000e+04 -1.55315089749599e+10 1.37929259760903e+09 -3.87042499735215e+09 -1.34241339216362e+03 -5.13443582044542e+02 4.35294136866995e+03
4.08600000000000e+04 -1.55315895200208e+10 1.37926178909260e+09 -3.87016382129464e+09 -1.34242201352393e+03 -5.13506955257896e+02 4.35292739219256e+03
END Ephemeris
